{"type": "FeatureCollection", "name": "plots", "features": [{"type": "Feature", "properties": {"id": 72, "plot_numbe": "72", "block_labe": "مدينة بدر", "layer_type": "plot_polygon", "label_only": false, "number_source": "dxf_numbering_layer_printed_in_svg", "coordinate_space": "image_normalized_top_left", "label_image_point": [674.02, 1249.22]}, "image_geometry": {"type": "Polygon", "coordinates": [[[694.82, 1264.92], [686.26, 1266.43], [677.62, 1266.97], [668.44, 1266.97], [659.8, 1266.43], [653.33, 1265.29], [662.47, 1210.46], [665.74, 1210.83], [670.6, 1211.37], [675.46, 1211.37], [680.86, 1210.83], [685.19, 1210.34], [694.82, 1264.92]]]}, "geometry": {"type": "MultiPolygon", "coordinates": [[[[0.090625, 0.583721], [0.089508, 0.584418], [0.088381, 0.584667], [0.087184, 0.584667], [0.086057, 0.584418], [0.085213, 0.583891], [0.086405, 0.558589], [0.086832, 0.558757], [0.087466, 0.559006], [0.088099, 0.559006], [0.088804, 0.558757], [0.089369, 0.558535], [0.090625, 0.583721]]]]}}, {"type": "Feature", "properties": {"id": 83, "plot_numbe": "83", "block_labe": "مدينة بدر", "layer_type": "plot_polygon", "label_only": false, "number_source": "dxf_numbering_layer_printed_in_svg", "coordinate_space": "image_normalized_top_left", "label_image_point": [811.55, 1002.1]}, "image_geometry": {"type": "Polygon", "coordinates": [[[793.4, 977.99], [795.87, 978.13], [805.05, 979.75], [813.69, 981.91], [822.33, 985.15], [830.97, 988.39], [839.07, 992.71], [812.61, 1041.3], [807.75, 1039.14], [803.43, 1037.52], [798.57, 1035.9], [793.71, 1034.28], [789.72, 1033.88], [793.4, 977.99]]]}, "geometry": {"type": "MultiPolygon", "coordinates": [[[[0.103483, 0.45131], [0.103805, 0.451377], [0.105002, 0.452124], [0.106129, 0.453121], [0.107256, 0.454616], [0.108383, 0.456111], [0.109439, 0.458104], [0.105988, 0.480526], [0.105354, 0.47953], [0.104791, 0.478782], [0.104157, 0.478035], [0.103523, 0.477288], [0.103002, 0.477103], [0.103483, 0.45131]]]]}}, {"type": "Feature", "properties": {"id": 123, "plot_numbe": "123", "block_labe": "مدينة بدر", "layer_type": "plot_polygon", "label_only": false, "number_source": "dxf_numbering_layer_printed_in_svg", "coordinate_space": "image_normalized_top_left", "label_image_point": [978.06, 1488.3]}, "image_geometry": {"type": "Polygon", "coordinates": [[[956.21, 1484.81], [982.13, 1466.63], [1018.71, 1522.16], [996.35, 1537.97], [956.21, 1484.81]]]}, "geometry": {"type": "MultiPolygon", "coordinates": [[[[0.124718, 0.685192], [0.128099, 0.676802], [0.13287, 0.702429], [0.129953, 0.709721], [0.124718, 0.685192]]]]}}, {"type": "Feature", "properties": {"id": 201, "plot_numbe": "201", "block_labe": "مدينة بدر", "layer_type": "plot_polygon", "label_only": false, "number_source": "dxf_numbering_layer_printed_in_svg", "coordinate_space": "image_normalized_top_left", "label_image_point": [1748.04, 1453.35]}, "image_geometry": {"type": "Polygon", "coordinates": [[[1763.31, 1426.55], [1778.44, 1448.22], [1732.8, 1480.14], [1718.82, 1460.16], [1717.64, 1458.48], [1763.31, 1426.55]]]}, "geometry": {"type": "MultiPolygon", "coordinates": [[[[0.229987, 0.658306], [0.23196, 0.668308], [0.226007, 0.683037], [0.224184, 0.673815], [0.224031, 0.673042], [0.229987, 0.658306]]]]}}, {"type": "Feature", "properties": {"id": 215, "plot_numbe": "215", "block_labe": "مدينة بدر", "layer_type": "plot_polygon", "label_only": false, "number_source": "dxf_numbering_layer_printed_in_svg", "coordinate_space": "image_normalized_top_left", "label_image_point": [1625.66, 1618.61]}, "image_geometry": {"type": "Polygon", "coordinates": [[[1655.33, 1630.78], [1631.03, 1650.22], [1596.0, 1606.44], [1620.29, 1587.0], [1655.33, 1630.78]]]}, "geometry": {"type": "MultiPolygon", "coordinates": [[[[0.215903, 0.752554], [0.212733, 0.761523], [0.208164, 0.741318], [0.211334, 0.732349], [0.215903, 0.752554]]]]}}, {"type": "Feature", "properties": {"id": 217, "plot_numbe": "217", "block_labe": "مدينة بدر", "layer_type": "plot_polygon", "label_only": false, "number_source": "dxf_numbering_layer_printed_in_svg", "coordinate_space": "image_normalized_top_left", "label_image_point": [1576.87, 1660.32]}, "image_geometry": {"type": "Polygon", "coordinates": [[[1606.53, 1672.49], [1582.24, 1691.93], [1547.2, 1648.14], [1571.5, 1628.71], [1606.53, 1672.49]]]}, "geometry": {"type": "MultiPolygon", "coordinates": [[[[0.209539, 0.771801], [0.20637, 0.78077], [0.2018, 0.760565], [0.20497, 0.751596], [0.209539, 0.771801]]]]}}, {"type": "Feature", "properties": {"id": 229, "plot_numbe": "229", "block_labe": "مدينة بدر", "layer_type": "plot_polygon", "label_only": false, "number_source": "dxf_numbering_layer_printed_in_svg", "coordinate_space": "image_normalized_top_left", "label_image_point": [1361.19, 1413.45]}, "image_geometry": {"type": "Polygon", "coordinates": [[[1327.76, 1378.54], [1339.68, 1370.18], [1371.75, 1415.72], [1359.74, 1424.15], [1327.76, 1378.54]]]}, "geometry": {"type": "MultiPolygon", "coordinates": [[[[0.173178, 0.63615], [0.174734, 0.632296], [0.178917, 0.65331], [0.17735, 0.657197], [0.173178, 0.63615]]]]}}, {"type": "Feature", "properties": {"id": 248, "plot_numbe": "248", "block_labe": "مدينة بدر", "layer_type": "plot_polygon", "label_only": false, "number_source": "dxf_numbering_layer_printed_in_svg", "coordinate_space": "image_normalized_top_left", "label_image_point": [1114.45, 1245.55]}, "image_geometry": {"type": "Polygon", "coordinates": [[[1128.14, 1301.84], [1085.45, 1241.44], [1131.33, 1209.03], [1134.05, 1212.87], [1154.5, 1241.81], [1109.05, 1273.99], [1128.14, 1301.84]]]}, "geometry": {"type": "MultiPolygon", "coordinates": [[[[0.147142, 0.600758], [0.141575, 0.572884], [0.147559, 0.557926], [0.147913, 0.559701], [0.15058, 0.573053], [0.144653, 0.587906], [0.147142, 0.600758]]]]}}, {"type": "Feature", "properties": {"id": 268, "plot_numbe": "268", "block_labe": "مدينة بدر", "layer_type": "plot_polygon", "label_only": false, "number_source": "dxf_numbering_layer_printed_in_svg", "coordinate_space": "image_normalized_top_left", "label_image_point": [1277.47, 1219.38]}, "image_geometry": {"type": "Polygon", "coordinates": [[[1261.45, 1250.15], [1243.09, 1224.14], [1281.36, 1197.13], [1299.79, 1223.15], [1261.45, 1250.15]]]}, "geometry": {"type": "MultiPolygon", "coordinates": [[[[0.16453, 0.576902], [0.162135, 0.564901], [0.167126, 0.552438], [0.16953, 0.564445], [0.16453, 0.576902]]]]}}, {"type": "Feature", "properties": {"id": 303, "plot_numbe": "303", "block_labe": "مدينة بدر", "layer_type": "plot_polygon", "label_only": false, "number_source": "dxf_numbering_layer_printed_in_svg", "coordinate_space": "image_normalized_top_left", "label_image_point": [744.2, 717.45]}, "image_geometry": {"type": "Polygon", "coordinates": [[[736.31, 744.15], [728.38, 729.79], [718.66, 708.19], [718.22, 706.99], [761.46, 689.6], [761.93, 690.56], [769.95, 708.73], [776.83, 721.34], [736.31, 744.15]]]}, "geometry": {"type": "MultiPolygon", "coordinates": [[[[0.096037, 0.343401], [0.095001, 0.336772], [0.093734, 0.326807], [0.093676, 0.326252], [0.099317, 0.318228], [0.099378, 0.318669], [0.100424, 0.327056], [0.101322, 0.332877], [0.096037, 0.343401]]]]}}, {"type": "Feature", "properties": {"id": 304, "plot_numbe": "304", "block_labe": "مدينة بدر", "layer_type": "plot_polygon", "label_only": false, "number_source": "dxf_numbering_layer_printed_in_svg", "coordinate_space": "image_normalized_top_left", "label_image_point": [792.33, 694.25]}, "image_geometry": {"type": "Polygon", "coordinates": [[[804.72, 672.15], [805.05, 673.1], [812.07, 688.21], [815.2, 693.64], [817.47, 698.47], [781.16, 718.8], [773.83, 684.43], [804.72, 672.15]]]}, "geometry": {"type": "MultiPolygon", "coordinates": [[[[0.104959, 0.310174], [0.105002, 0.310613], [0.105918, 0.317589], [0.106326, 0.320095], [0.106622, 0.322322], [0.101886, 0.331705], [0.10093, 0.31584], [0.104959, 0.310174]]]]}}, {"type": "Feature", "properties": {"id": 314, "plot_numbe": "314", "block_labe": "مدينة بدر", "layer_type": "plot_polygon", "label_only": false, "number_source": "dxf_numbering_layer_printed_in_svg", "coordinate_space": "image_normalized_top_left", "label_image_point": [767.18, 536.38]}, "image_geometry": {"type": "Polygon", "coordinates": [[[745.84, 551.11], [751.19, 516.01], [797.49, 523.01], [791.85, 558.07], [745.84, 551.11]]]}, "geometry": {"type": "MultiPolygon", "coordinates": [[[[0.097279, 0.25432], [0.097977, 0.238122], [0.104016, 0.241352], [0.10328, 0.257529], [0.097279, 0.25432]]]]}}, {"type": "Feature", "properties": {"id": 325, "plot_numbe": "325", "block_labe": "مدينة بدر", "layer_type": "plot_polygon", "label_only": false, "number_source": "dxf_numbering_layer_printed_in_svg", "coordinate_space": "image_normalized_top_left", "label_image_point": [837.42, 569.11]}, "image_geometry": {"type": "Polygon", "coordinates": [[[877.01, 554.96], [873.12, 583.45], [873.11, 583.48], [873.09, 583.48], [873.09, 583.68], [872.58, 587.35], [816.5, 589.25], [816.93, 577.54], [818.36, 565.15], [821.15, 547.32], [877.01, 554.96]]]}, "geometry": {"type": "MultiPolygon", "coordinates": [[[[0.114388, 0.256094], [0.11388, 0.269241], [0.113879, 0.269257], [0.113876, 0.269255], [0.113876, 0.269347], [0.11381, 0.271041], [0.106495, 0.271918], [0.106551, 0.266515], [0.106738, 0.260799], [0.107101, 0.25257], [0.114388, 0.256094]]]]}}, {"type": "Feature", "properties": {"id": 326, "plot_numbe": "326", "block_labe": "مدينة بدر", "layer_type": "plot_polygon", "label_only": false, "number_source": "dxf_numbering_layer_printed_in_svg", "coordinate_space": "image_normalized_top_left", "label_image_point": [892.54, 569.08]}, "image_geometry": {"type": "Polygon", "coordinates": [[[928.69, 580.33], [927.19, 590.3], [873.12, 583.45], [877.65, 550.27], [932.14, 557.45], [928.69, 580.33]]]}, "geometry": {"type": "MultiPolygon", "coordinates": [[[[0.121129, 0.267805], [0.120933, 0.272406], [0.11388, 0.269241], [0.114472, 0.253932], [0.121578, 0.257243], [0.121129, 0.267805]]]]}}, {"type": "Feature", "properties": {"id": 341, "plot_numbe": "341", "block_labe": "مدينة بدر", "layer_type": "plot_polygon", "label_only": false, "number_source": "dxf_numbering_layer_printed_in_svg", "coordinate_space": "image_normalized_top_left", "label_image_point": [1031.18, 817.97]}, "image_geometry": {"type": "Polygon", "coordinates": [[[1022.92, 847.05], [1019.54, 842.26], [1019.42, 842.08], [1019.37, 842.12], [1012.41, 847.09], [993.99, 821.08], [1046.44, 783.93], [1068.37, 814.86], [1022.92, 847.05]]]}, "geometry": {"type": "MultiPolygon", "coordinates": [[[[0.133419, 0.390886], [0.132978, 0.388677], [0.132962, 0.388594], [0.132955, 0.38861], [0.132048, 0.390902], [0.129645, 0.3789], [0.136487, 0.361757], [0.139347, 0.376033], [0.133419, 0.390886]]]]}}, {"type": "Feature", "properties": {"id": 353, "plot_numbe": "353", "block_labe": "مدينة بدر", "layer_type": "plot_polygon", "label_only": false, "number_source": "dxf_numbering_layer_printed_in_svg", "coordinate_space": "image_normalized_top_left", "label_image_point": [1082.08, 686.99]}, "image_geometry": {"type": "Polygon", "coordinates": [[[1134.46, 705.85], [1067.47, 695.77], [1070.84, 674.3], [1137.71, 684.45], [1134.46, 705.85]]]}, "geometry": {"type": "MultiPolygon", "coordinates": [[[[0.147966, 0.325729], [0.13923, 0.321077], [0.139669, 0.31117], [0.148391, 0.315851], [0.147966, 0.325729]]]]}}, {"type": "Feature", "properties": {"id": 392, "plot_numbe": "392", "block_labe": "مدينة بدر", "layer_type": "plot_polygon", "label_only": false, "number_source": "dxf_numbering_layer_printed_in_svg", "coordinate_space": "image_normalized_top_left", "label_image_point": [1457.72, 591.12]}, "image_geometry": {"type": "Polygon", "coordinates": [[[1444.04, 565.34], [1451.39, 566.47], [1478.42, 570.61], [1471.41, 616.84], [1437.02, 611.62], [1444.04, 565.34]]]}, "geometry": {"type": "MultiPolygon", "coordinates": [[[[0.188345, 0.260888], [0.189304, 0.261407], [0.192829, 0.263318], [0.191915, 0.28465], [0.187429, 0.282244], [0.188345, 0.260888]]]]}}, {"type": "Feature", "properties": {"id": 415, "plot_numbe": "415", "block_labe": "مدينة بدر", "layer_type": "plot_polygon", "label_only": false, "number_source": "dxf_numbering_layer_printed_in_svg", "coordinate_space": "image_normalized_top_left", "label_image_point": [1781.12, 664.92]}, "image_geometry": {"type": "Polygon", "coordinates": [[[1802.66, 628.45], [1794.32, 683.57], [1762.97, 678.92], [1771.36, 623.7], [1802.66, 628.45]]]}, "geometry": {"type": "MultiPolygon", "coordinates": [[[[0.235119, 0.290007], [0.234032, 0.315446], [0.229943, 0.313298], [0.231037, 0.287819], [0.235119, 0.290007]]]]}}, {"type": "Feature", "properties": {"id": 450, "plot_numbe": "450", "block_labe": "مدينة بدر", "layer_type": "plot_polygon", "label_only": false, "number_source": "dxf_numbering_layer_printed_in_svg", "coordinate_space": "image_normalized_top_left", "label_image_point": [1623.44, 1194.08]}, "image_geometry": {"type": "Polygon", "coordinates": [[[1632.73, 1165.13], [1626.88, 1169.25], [1658.78, 1214.93], [1631.03, 1234.45], [1598.81, 1188.7], [1632.62, 1164.98], [1632.73, 1165.13]]]}, "geometry": {"type": "MultiPolygon", "coordinates": [[[[0.212955, 0.537669], [0.212193, 0.539573], [0.216353, 0.560651], [0.212734, 0.569659], [0.208531, 0.548547], [0.212941, 0.537599], [0.212955, 0.537669]]]]}}, {"type": "Feature", "properties": {"id": 454, "plot_numbe": "454", "block_labe": "مدينة بدر", "layer_type": "plot_polygon", "label_only": false, "number_source": "dxf_numbering_layer_printed_in_svg", "coordinate_space": "image_normalized_top_left", "label_image_point": [1609.47, 1303.65]}, "image_geometry": {"type": "Polygon", "coordinates": [[[1607.44, 1318.8], [1575.58, 1273.45], [1592.52, 1261.54], [1624.45, 1306.92], [1607.44, 1318.8]]]}, "geometry": {"type": "MultiPolygon", "coordinates": [[[[0.209657, 0.608585], [0.205502, 0.587657], [0.207711, 0.58216], [0.211875, 0.6031], [0.209657, 0.608585]]]]}}, {"type": "Feature", "properties": {"id": 466, "plot_numbe": "466", "block_labe": "مدينة بدر", "layer_type": "plot_polygon", "label_only": false, "number_source": "dxf_numbering_layer_printed_in_svg", "coordinate_space": "image_normalized_top_left", "label_image_point": [577.31, 426.16]}, "image_geometry": {"type": "Polygon", "coordinates": [[[556.83, 440.51], [562.07, 406.39], [603.86, 412.74], [598.69, 446.85], [556.83, 440.51]]]}, "geometry": {"type": "MultiPolygon", "coordinates": [[[[0.072626, 0.20328], [0.07331, 0.187537], [0.078761, 0.190468], [0.078086, 0.206207], [0.072626, 0.20328]]]]}}, {"type": "Feature", "properties": {"id": 528, "plot_numbe": "528", "block_labe": "مدينة بدر", "layer_type": "plot_polygon", "label_only": false, "number_source": "dxf_numbering_layer_printed_in_svg", "coordinate_space": "image_normalized_top_left", "label_image_point": [451.94, 589.59]}, "image_geometry": {"type": "Polygon", "coordinates": [[[416.89, 581.75], [421.67, 578.08], [428.15, 572.68], [434.09, 566.2], [439.49, 559.72], [444.79, 552.84], [488.49, 587.14], [487.73, 588.17], [449.21, 627.21], [416.27, 582.4], [416.89, 581.75]]]}, "geometry": {"type": "MultiPolygon", "coordinates": [[[[0.054375, 0.268461], [0.054999, 0.266764], [0.055844, 0.264273], [0.056618, 0.261283], [0.057323, 0.258293], [0.058014, 0.255115], [0.063713, 0.270947], [0.063614, 0.27142], [0.05859, 0.289436], [0.054294, 0.268757], [0.054375, 0.268461]]]]}}, {"type": "Feature", "properties": {"id": 530, "plot_numbe": "530", "block_labe": "مدينة بدر", "layer_type": "plot_polygon", "label_only": false, "number_source": "dxf_numbering_layer_printed_in_svg", "coordinate_space": "image_normalized_top_left", "label_image_point": [484.73, 564.18]}, "image_geometry": {"type": "Polygon", "coordinates": [[[506.51, 555.44], [503.75, 561.88], [497.81, 573.22], [490.79, 584.02], [488.49, 587.14], [444.89, 552.7], [449.21, 545.68], [452.99, 538.13], [453.9, 536.17], [506.51, 555.44]]]}, "geometry": {"type": "MultiPolygon", "coordinates": [[[[0.066063, 0.256319], [0.065704, 0.25929], [0.064929, 0.264522], [0.064013, 0.269505], [0.063713, 0.270947], [0.058027, 0.255054], [0.05859, 0.251816], [0.059083, 0.248328], [0.059202, 0.247426], [0.066063, 0.256319]]]]}}, {"type": "Feature", "properties": {"id": 543, "plot_numbe": "543", "block_labe": "مدينة بدر", "layer_type": "plot_polygon", "label_only": false, "number_source": "dxf_numbering_layer_printed_in_svg", "coordinate_space": "image_normalized_top_left", "label_image_point": [617.23, 297.52]}, "image_geometry": {"type": "Polygon", "coordinates": [[[577.26, 305.99], [581.55, 277.58], [636.49, 285.89], [632.16, 314.33], [577.26, 305.99]]]}, "geometry": {"type": "MultiPolygon", "coordinates": [[[[0.075291, 0.141202], [0.075852, 0.128095], [0.083017, 0.131928], [0.082453, 0.145052], [0.075291, 0.141202]]]]}}, {"type": "Feature", "properties": {"id": 563, "plot_numbe": "563", "block_labe": "مدينة بدر", "layer_type": "plot_polygon", "label_only": false, "number_source": "dxf_numbering_layer_printed_in_svg", "coordinate_space": "image_normalized_top_left", "label_image_point": [353.06, 238.04]}, "image_geometry": {"type": "Polygon", "coordinates": [[[342.81, 201.45], [367.28, 205.09], [373.62, 206.1], [366.03, 257.29], [345.96, 254.27], [335.0, 252.57], [342.81, 201.45]]]}, "geometry": {"type": "MultiPolygon", "coordinates": [[[[0.044712, 0.09296], [0.047904, 0.094645], [0.04873, 0.095106], [0.047741, 0.118732], [0.045123, 0.117336], [0.043694, 0.116551], [0.044712, 0.09296]]]]}}, {"type": "Feature", "properties": {"id": 568, "plot_numbe": "568", "block_labe": "مدينة بدر", "layer_type": "plot_polygon", "label_only": false, "number_source": "dxf_numbering_layer_printed_in_svg", "coordinate_space": "image_normalized_top_left", "label_image_point": [432.58, 308.16]}, "image_geometry": {"type": "Polygon", "coordinates": [[[441.17, 320.78], [420.62, 317.68], [428.4, 266.69], [448.87, 269.78], [441.17, 320.78]]]}, "geometry": {"type": "MultiPolygon", "coordinates": [[[[0.057542, 0.14803], [0.054861, 0.1466], [0.055876, 0.123071], [0.058546, 0.124494], [0.057542, 0.14803]]]]}}, {"type": "Feature", "properties": {"id": 661, "plot_numbe": "661", "block_labe": "مدينة بدر", "layer_type": "plot_polygon", "label_only": false, "number_source": "dxf_numbering_layer_printed_in_svg", "coordinate_space": "image_normalized_top_left", "label_image_point": [1726.8, 489.81]}, "image_geometry": {"type": "Polygon", "coordinates": [[[1745.19, 517.79], [1701.05, 511.11], [1709.34, 456.3], [1720.6, 458.01], [1753.27, 462.96], [1745.19, 517.79]]]}, "geometry": {"type": "MultiPolygon", "coordinates": [[[[0.227623, 0.238941], [0.221866, 0.235859], [0.222948, 0.210568], [0.224416, 0.211355], [0.228677, 0.213639], [0.227623, 0.238941]]]]}}, {"type": "Feature", "properties": {"id": 669, "plot_numbe": "669", "block_labe": "مدينة بدر", "layer_type": "plot_polygon", "label_only": false, "number_source": "dxf_numbering_layer_printed_in_svg", "coordinate_space": "image_normalized_top_left", "label_image_point": [1603.78, 458.17]}, "image_geometry": {"type": "Polygon", "coordinates": [[[1616.62, 447.42], [1610.14, 492.24], [1598.8, 490.62], [1589.62, 478.2], [1594.48, 444.19], [1616.62, 447.42]]]}, "geometry": {"type": "MultiPolygon", "coordinates": [[[[0.210855, 0.206472], [0.210009, 0.227151], [0.20853, 0.226403], [0.207333, 0.220673], [0.207967, 0.204977], [0.210855, 0.206472]]]]}}, {"type": "Feature", "properties": {"id": 674, "plot_numbe": "674", "block_labe": "مدينة بدر", "layer_type": "plot_polygon", "label_only": false, "number_source": "dxf_numbering_layer_printed_in_svg", "coordinate_space": "image_normalized_top_left", "label_image_point": [1474.53, 391.07]}, "image_geometry": {"type": "Polygon", "coordinates": [[[1467.44, 419.37], [1454.26, 417.38], [1461.27, 370.36], [1493.28, 375.13], [1486.2, 422.21], [1467.44, 419.37]]]}, "geometry": {"type": "MultiPolygon", "coordinates": [[[[0.191397, 0.193525], [0.189678, 0.192605], [0.190592, 0.17091], [0.194768, 0.173111], [0.193844, 0.194834], [0.191397, 0.193525]]]]}}, {"type": "Feature", "properties": {"id": 675, "plot_numbe": "675", "block_labe": "مدينة بدر", "layer_type": "plot_polygon", "label_only": false, "number_source": "dxf_numbering_layer_printed_in_svg", "coordinate_space": "image_normalized_top_left", "label_image_point": [1470.84, 465.34]}, "image_geometry": {"type": "Polygon", "coordinates": [[[1479.35, 477.93], [1458.96, 474.87], [1467.44, 419.37], [1487.75, 422.44], [1479.35, 477.93]]]}, "geometry": {"type": "MultiPolygon", "coordinates": [[[[0.192951, 0.220547], [0.190291, 0.219138], [0.191397, 0.193525], [0.194046, 0.194942], [0.192951, 0.220547]]]]}}, {"type": "Feature", "properties": {"id": 681, "plot_numbe": "681", "block_labe": "مدينة بدر", "layer_type": "plot_polygon", "label_only": false, "number_source": "dxf_numbering_layer_printed_in_svg", "coordinate_space": "image_normalized_top_left", "label_image_point": [1213.41, 419.9]}, "image_geometry": {"type": "Polygon", "coordinates": [[[1226.83, 439.42], [1194.96, 434.65], [1203.11, 379.37], [1235.25, 384.26], [1235.25, 384.32], [1234.86, 384.26], [1226.83, 439.42]]]}, "geometry": {"type": "MultiPolygon", "coordinates": [[[[0.160014, 0.20278], [0.155858, 0.200578], [0.15692, 0.175068], [0.161113, 0.177322], [0.161112, 0.177349], [0.161062, 0.177323], [0.160014, 0.20278]]]]}}, {"type": "Feature", "properties": {"id": 698, "plot_numbe": "698", "block_labe": "مدينة بدر", "layer_type": "plot_polygon", "label_only": false, "number_source": "dxf_numbering_layer_printed_in_svg", "coordinate_space": "image_normalized_top_left", "label_image_point": [887.72, 298.02]}, "image_geometry": {"type": "Polygon", "coordinates": [[[910.34, 287.08], [874.71, 313.53], [874.71, 311.37], [875.25, 309.21], [876.33, 307.05], [876.87, 304.89], [877.95, 302.74], [879.03, 301.12], [880.65, 298.96], [881.73, 297.34], [883.35, 295.72], [884.97, 294.1], [887.13, 293.02], [888.75, 291.4], [890.91, 290.32], [892.53, 289.78], [894.69, 288.7], [896.85, 288.16], [899.01, 287.62], [901.17, 287.08], [903.86, 287.08], [906.02, 286.54], [908.18, 287.08], [910.34, 287.08]]]}, "geometry": {"type": "MultiPolygon", "coordinates": [[[[0.118735, 0.132477], [0.114087, 0.144685], [0.114087, 0.143689], [0.114158, 0.142692], [0.114298, 0.141696], [0.114369, 0.140699], [0.11451, 0.139702], [0.114651, 0.138955], [0.114862, 0.137958], [0.115003, 0.137211], [0.115214, 0.136464], [0.115425, 0.135716], [0.115707, 0.135218], [0.115918, 0.13447], [0.1162, 0.133972], [0.116411, 0.133723], [0.116693, 0.133225], [0.116975, 0.132976], [0.117256, 0.132726], [0.117538, 0.132477], [0.11789, 0.132477], [0.118172, 0.132228], [0.118454, 0.132477], [0.118735, 0.132477]]]]}}, {"type": "Feature", "properties": {"id": 726, "plot_numbe": "726", "block_labe": "مدينة بدر", "layer_type": "plot_polygon", "label_only": false, "number_source": "dxf_numbering_layer_printed_in_svg", "coordinate_space": "image_normalized_top_left", "label_image_point": [2533.66, 589.85]}, "image_geometry": {"type": "Polygon", "coordinates": [[[2497.9, 608.01], [2505.0, 561.9], [2560.28, 570.26], [2555.0, 604.79], [2553.22, 616.45], [2497.9, 608.01]]]}, "geometry": {"type": "MultiPolygon", "coordinates": [[[[0.325799, 0.280577], [0.326725, 0.259299], [0.333935, 0.263156], [0.333247, 0.279091], [0.333015, 0.284473], [0.325799, 0.280577]]]]}}, {"type": "Feature", "properties": {"id": 727, "plot_numbe": "727", "block_labe": "مدينة بدر", "layer_type": "plot_polygon", "label_only": false, "number_source": "dxf_numbering_layer_printed_in_svg", "coordinate_space": "image_normalized_top_left", "label_image_point": [2594.18, 593.06]}, "image_geometry": {"type": "Polygon", "coordinates": [[[2555.0, 604.79], [2560.28, 570.26], [2615.34, 578.58], [2610.06, 613.16], [2555.0, 604.79]]]}, "geometry": {"type": "MultiPolygon", "coordinates": [[[[0.333247, 0.279091], [0.333935, 0.263156], [0.341116, 0.266997], [0.340428, 0.282951], [0.333247, 0.279091]]]]}}, {"type": "Feature", "properties": {"id": 743, "plot_numbe": "743", "block_labe": "مدينة بدر", "layer_type": "plot_polygon", "label_only": false, "number_source": "dxf_numbering_layer_printed_in_svg", "coordinate_space": "image_normalized_top_left", "label_image_point": [2149.33, 560.48]}, "image_geometry": {"type": "Polygon", "coordinates": [[[2163.63, 581.18], [2129.59, 575.9], [2137.53, 524.2], [2171.29, 529.24], [2163.63, 581.18]]]}, "geometry": {"type": "MultiPolygon", "coordinates": [[[[0.2822, 0.268198], [0.277761, 0.26576], [0.278796, 0.241901], [0.283199, 0.244225], [0.2822, 0.268198]]]]}}, {"type": "Feature", "properties": {"id": 749, "plot_numbe": "749", "block_labe": "مدينة بدر", "layer_type": "plot_polygon", "label_only": false, "number_source": "dxf_numbering_layer_printed_in_svg", "coordinate_space": "image_normalized_top_left", "label_image_point": [2087.67, 634.19]}, "image_geometry": {"type": "Polygon", "coordinates": [[[2073.43, 613.17], [2107.42, 618.25], [2099.09, 673.31], [2065.33, 668.24], [2073.43, 613.17]]]}, "geometry": {"type": "MultiPolygon", "coordinates": [[[[0.270436, 0.282958], [0.274869, 0.285304], [0.273783, 0.310709], [0.26938, 0.30837], [0.270436, 0.282958]]]]}}, {"type": "Feature", "properties": {"id": 750, "plot_numbe": "750", "block_labe": "مدينة بدر", "layer_type": "plot_polygon", "label_only": false, "number_source": "dxf_numbering_layer_printed_in_svg", "coordinate_space": "image_normalized_top_left", "label_image_point": [2104.45, 717.38]}, "image_geometry": {"type": "Polygon", "coordinates": [[[2099.09, 673.31], [2122.56, 676.83], [2114.24, 732.22], [2090.71, 728.71], [2099.09, 673.31]]]}, "geometry": {"type": "MultiPolygon", "coordinates": [[[[0.273783, 0.310709], [0.276844, 0.312335], [0.275759, 0.337895], [0.27269, 0.336274], [0.273783, 0.310709]]]]}}, {"type": "Feature", "properties": {"id": 751, "plot_numbe": "751", "block_labe": "مدينة بدر", "layer_type": "plot_polygon", "label_only": false, "number_source": "dxf_numbering_layer_printed_in_svg", "coordinate_space": "image_normalized_top_left", "label_image_point": [2121.38, 639.29]}, "image_geometry": {"type": "Polygon", "coordinates": [[[2107.42, 618.25], [2164.48, 626.79], [2140.93, 623.43], [2132.59, 678.34], [2099.09, 673.31], [2107.42, 618.25]]]}, "geometry": {"type": "MultiPolygon", "coordinates": [[[[0.274869, 0.285304], [0.282311, 0.289244], [0.27924, 0.287692], [0.278151, 0.31303], [0.273783, 0.310709], [0.274869, 0.285304]]]]}}, {"type": "Feature", "properties": {"id": 783, "plot_numbe": "783", "block_labe": "مدينة بدر", "layer_type": "plot_polygon", "label_only": false, "number_source": "dxf_numbering_layer_printed_in_svg", "coordinate_space": "image_normalized_top_left", "label_image_point": [2310.87, 913.53]}, "image_geometry": {"type": "Polygon", "coordinates": [[[2323.85, 936.43], [2319.12, 934.4], [2312.1, 931.16], [2305.08, 926.84], [2298.6, 921.99], [2292.12, 917.13], [2288.08, 913.09], [2326.39, 883.98], [2323.85, 936.43]]]}, "geometry": {"type": "MultiPolygon", "coordinates": [[[[0.303097, 0.432131], [0.302481, 0.431197], [0.301565, 0.429702], [0.30065, 0.427709], [0.299804, 0.425466], [0.298959, 0.423224], [0.298433, 0.421361], [0.303429, 0.407926], [0.303097, 0.432131]]]]}}, {"type": "Feature", "properties": {"id": 793, "plot_numbe": "793", "block_labe": "مدينة بدر", "layer_type": "plot_polygon", "label_only": false, "number_source": "dxf_numbering_layer_printed_in_svg", "coordinate_space": "image_normalized_top_left", "label_image_point": [2380.87, 755.21]}, "image_geometry": {"type": "Polygon", "coordinates": [[[2370.15, 714.4], [2403.11, 719.37], [2394.73, 774.53], [2361.8, 769.6], [2370.42, 714.67], [2370.11, 714.62], [2370.15, 714.4]]]}, "geometry": {"type": "MultiPolygon", "coordinates": [[[[0.309136, 0.329672], [0.313435, 0.331964], [0.312342, 0.35742], [0.308047, 0.355147], [0.309171, 0.329797], [0.309132, 0.329774], [0.309136, 0.329672]]]]}}, {"type": "Feature", "properties": {"id": 803, "plot_numbe": "803", "block_labe": "مدينة بدر", "layer_type": "plot_polygon", "label_only": false, "number_source": "dxf_numbering_layer_printed_in_svg", "coordinate_space": "image_normalized_top_left", "label_image_point": [2541.83, 798.68]}, "image_geometry": {"type": "Polygon", "coordinates": [[[2583.42, 789.13], [2578.81, 819.94], [2523.68, 811.84], [2528.31, 780.8], [2583.42, 789.13]]]}, "geometry": {"type": "MultiPolygon", "coordinates": [[[[0.336954, 0.364158], [0.336352, 0.378377], [0.329161, 0.374636], [0.329766, 0.360313], [0.336954, 0.364158]]]]}}, {"type": "Feature", "properties": {"id": 817, "plot_numbe": "817", "block_labe": "مدينة بدر", "layer_type": "plot_polygon", "label_only": false, "number_source": "dxf_numbering_layer_printed_in_svg", "coordinate_space": "image_normalized_top_left", "label_image_point": [2523.66, 1041.95]}, "image_geometry": {"type": "Polygon", "coordinates": [[[2487.25, 1054.02], [2488.28, 1047.26], [2493.15, 1015.41], [2548.07, 1024.02], [2550.77, 1007.29], [2541.42, 1069.29], [2487.25, 1054.02]]]}, "geometry": {"type": "MultiPolygon", "coordinates": [[[[0.32441, 0.486396], [0.324544, 0.483278], [0.325179, 0.468579], [0.332342, 0.472554], [0.332694, 0.464831], [0.331475, 0.493444], [0.32441, 0.486396]]]]}}, {"type": "Feature", "properties": {"id": 820, "plot_numbe": "820", "block_labe": "مدينة بدر", "layer_type": "plot_polygon", "label_only": false, "number_source": "dxf_numbering_layer_printed_in_svg", "coordinate_space": "image_normalized_top_left", "label_image_point": [2443.93, 1077.72]}, "image_geometry": {"type": "Polygon", "coordinates": [[[2416.95, 1079.6], [2418.47, 1077.47], [2421.17, 1073.69], [2423.87, 1069.37], [2426.03, 1065.06], [2428.19, 1060.74], [2429.81, 1056.42], [2430.89, 1051.56], [2431.84, 1047.3], [2431.97, 1046.7], [2432.66, 1041.96], [2473.34, 1078.0], [2453.35, 1102.07], [2448.67, 1107.71], [2416.95, 1079.6]]]}, "geometry": {"type": "MultiPolygon", "coordinates": [[[[0.315241, 0.498201], [0.315439, 0.497219], [0.315792, 0.495475], [0.316144, 0.493482], [0.316425, 0.491489], [0.316707, 0.489496], [0.316918, 0.487502], [0.317059, 0.48526], [0.317183, 0.483295], [0.3172, 0.483018], [0.31729, 0.480829], [0.322595, 0.497462], [0.319988, 0.50857], [0.319378, 0.51117], [0.315241, 0.498201]]]]}}, {"type": "Feature", "properties": {"id": 836, "plot_numbe": "836", "block_labe": "مدينة بدر", "layer_type": "plot_polygon", "label_only": false, "number_source": "dxf_numbering_layer_printed_in_svg", "coordinate_space": "image_normalized_top_left", "label_image_point": [2238.94, 1248.08]}, "image_geometry": {"type": "Polygon", "coordinates": [[[2217.6, 1242.12], [2244.48, 1226.02], [2263.5, 1261.57], [2264.04, 1262.65], [2264.58, 1263.73], [2265.12, 1264.81], [2265.12, 1265.89], [2265.66, 1266.97], [2265.66, 1268.59], [2265.66, 1269.67], [2265.66, 1270.75], [2265.66, 1271.83], [2265.12, 1272.91], [2265.12, 1273.99], [2264.58, 1275.07], [2264.04, 1276.15], [2263.5, 1277.23], [2262.96, 1278.31], [2261.88, 1279.39], [2261.34, 1280.47], [2260.8, 1281.01], [2259.72, 1282.09], [2258.64, 1282.63], [2257.56, 1283.17], [2246.13, 1290.03], [2217.6, 1242.12]]]}, "geometry": {"type": "MultiPolygon", "coordinates": [[[[0.289239, 0.5732], [0.292746, 0.565767], [0.295227, 0.582176], [0.295297, 0.582674], [0.295368, 0.583172], [0.295438, 0.583671], [0.295438, 0.584169], [0.295508, 0.584667], [0.295508, 0.585415], [0.295508, 0.585913], [0.295508, 0.586411], [0.295508, 0.586909], [0.295438, 0.587408], [0.295438, 0.587906], [0.295368, 0.588404], [0.295297, 0.588903], [0.295227, 0.589401], [0.295156, 0.589899], [0.295015, 0.590397], [0.294945, 0.590896], [0.294875, 0.591145], [0.294734, 0.591643], [0.294593, 0.591892], [0.294452, 0.592141], [0.292961, 0.595308], [0.289239, 0.5732]]]]}}, {"type": "Feature", "properties": {"id": 881, "plot_numbe": "881", "block_labe": "مدينة بدر", "layer_type": "plot_polygon", "label_only": false, "number_source": "dxf_numbering_layer_printed_in_svg", "coordinate_space": "image_normalized_top_left", "label_image_point": [1895.68, 1122.14]}, "image_geometry": {"type": "Polygon", "coordinates": [[[1931.92, 1104.77], [1926.93, 1136.83], [1925.15, 1148.27], [1869.55, 1141.89], [1876.35, 1096.37], [1931.92, 1104.77]]]}, "geometry": {"type": "MultiPolygon", "coordinates": [[[[0.251978, 0.509816], [0.251327, 0.524612], [0.251095, 0.529888], [0.243844, 0.526943], [0.24473, 0.505939], [0.251978, 0.509816]]]]}}, {"type": "Feature", "properties": {"id": 914, "plot_numbe": "914", "block_labe": "مدينة بدر", "layer_type": "plot_polygon", "label_only": false, "number_source": "dxf_numbering_layer_printed_in_svg", "coordinate_space": "image_normalized_top_left", "label_image_point": [2635.13, 908.74]}, "image_geometry": {"type": "Polygon", "coordinates": [[[2669.3, 889.05], [2669.02, 893.91], [2669.56, 903.09], [2670.64, 912.27], [2672.72, 921.13], [2618.26, 934.4], [2615.56, 921.45], [2613.94, 907.95], [2613.4, 894.45], [2613.7, 886.9], [2669.3, 889.05]]]}, "geometry": {"type": "MultiPolygon", "coordinates": [[[[0.348155, 0.410269], [0.348118, 0.412511], [0.348188, 0.416747], [0.348329, 0.420982], [0.348601, 0.425071], [0.341498, 0.431197], [0.341145, 0.425217], [0.340934, 0.418989], [0.340864, 0.41276], [0.340903, 0.409278], [0.348155, 0.410269]]]]}}, {"type": "Feature", "properties": {"id": 928, "plot_numbe": "928", "block_labe": "مدينة بدر", "layer_type": "plot_polygon", "label_only": false, "number_source": "dxf_numbering_layer_printed_in_svg", "coordinate_space": "image_normalized_top_left", "label_image_point": [2877.86, 1020.47]}, "image_geometry": {"type": "Polygon", "coordinates": [[[2876.91, 1047.24], [2861.9, 1051.36], [2844.37, 998.1], [2855.51, 994.9], [2861.25, 993.25], [2867.73, 991.63], [2873.67, 988.93], [2880.15, 986.23], [2885.99, 983.58], [2912.54, 1032.12], [2903.9, 1036.98], [2895.27, 1040.76], [2886.09, 1044.0], [2876.91, 1047.24]]]}, "geometry": {"type": "MultiPolygon", "coordinates": [[[[0.375232, 0.483267], [0.373276, 0.48517], [0.370988, 0.460592], [0.372441, 0.459114], [0.37319, 0.458353], [0.374035, 0.457606], [0.37481, 0.45636], [0.375655, 0.455114], [0.376417, 0.453889], [0.379881, 0.476291], [0.378754, 0.478533], [0.377627, 0.480277], [0.37643, 0.481772], [0.375232, 0.483267]]]]}}, {"type": "Feature", "properties": {"id": 929, "plot_numbe": "929", "block_labe": "مدينة بدر", "layer_type": "plot_polygon", "label_only": false, "number_source": "dxf_numbering_layer_printed_in_svg", "coordinate_space": "image_normalized_top_left", "label_image_point": [2907.93, 940.95]}, "image_geometry": {"type": "Polygon", "coordinates": [[[2872.59, 924.69], [2875.29, 921.45], [2877.99, 917.67], [2880.69, 914.43], [2881.6, 912.82], [2882.85, 911.19], [2926.04, 935.42], [2911.56, 963.92], [2872.59, 924.69]]]}, "geometry": {"type": "MultiPolygon", "coordinates": [[[[0.374669, 0.426712], [0.375021, 0.425217], [0.375373, 0.423473], [0.375725, 0.421978], [0.375845, 0.421239], [0.376007, 0.420484], [0.381641, 0.431666], [0.379752, 0.444816], [0.374669, 0.426712]]]]}}, {"type": "Feature", "properties": {"id": 945, "plot_numbe": "945", "block_labe": "مدينة بدر", "layer_type": "plot_polygon", "label_only": false, "number_source": "dxf_numbering_layer_printed_in_svg", "coordinate_space": "image_normalized_top_left", "label_image_point": [2789.4, 740.79]}, "image_geometry": {"type": "Polygon", "coordinates": [[[2793.75, 722.23], [2806.77, 724.17], [2798.26, 779.06], [2769.45, 774.6], [2775.39, 735.72], [2775.93, 734.64], [2775.93, 733.57], [2776.47, 732.49], [2777.01, 731.41], [2777.55, 730.33], [2778.09, 729.25], [2778.63, 728.17], [2779.17, 727.09], [2780.25, 726.55], [2780.79, 725.47], [2781.87, 724.93], [2782.95, 724.39], [2784.03, 723.85], [2785.11, 723.31], [2786.19, 722.77], [2787.27, 722.23], [2788.35, 722.23], [2789.43, 722.23], [2790.51, 721.69], [2791.59, 721.69], [2792.67, 721.69], [2793.75, 722.23]]]}, "geometry": {"type": "MultiPolygon", "coordinates": [[[[0.364386, 0.333284], [0.366085, 0.334179], [0.364975, 0.359511], [0.361217, 0.357451], [0.361992, 0.339513], [0.362062, 0.339015], [0.362062, 0.338516], [0.362133, 0.338018], [0.362203, 0.33752], [0.362274, 0.337022], [0.362344, 0.336523], [0.362415, 0.336025], [0.362485, 0.335527], [0.362626, 0.335278], [0.362696, 0.334779], [0.362837, 0.33453], [0.362978, 0.334281], [0.363119, 0.334032], [0.36326, 0.333783], [0.3634, 0.333534], [0.363541, 0.333284], [0.363682, 0.333284], [0.363823, 0.333284], [0.363964, 0.333035], [0.364105, 0.333035], [0.364246, 0.333035], [0.364386, 0.333284]]]]}}, {"type": "Feature", "properties": {"id": 948, "plot_numbe": "948", "block_labe": "مدينة بدر", "layer_type": "plot_polygon", "label_only": false, "number_source": "dxf_numbering_layer_printed_in_svg", "coordinate_space": "image_normalized_top_left", "label_image_point": [2730.86, 615.68]}, "image_geometry": {"type": "Polygon", "coordinates": [[[2703.4, 631.07], [2703.92, 627.66], [2707.9, 628.29], [2707.94, 628.02], [2708.22, 628.07], [2713.38, 593.48], [2768.33, 601.83], [2762.57, 640.05], [2703.4, 631.07]]]}, "geometry": {"type": "MultiPolygon", "coordinates": [[[[0.352602, 0.291218], [0.35267, 0.289646], [0.353189, 0.289934], [0.353194, 0.289812], [0.353231, 0.289832], [0.353903, 0.27387], [0.361071, 0.277723], [0.360319, 0.29536], [0.352602, 0.291218]]]]}}, {"type": "Feature", "properties": {"id": 951, "plot_numbe": "951", "block_labe": "مدينة بدر", "layer_type": "plot_polygon", "label_only": false, "number_source": "dxf_numbering_layer_printed_in_svg", "coordinate_space": "image_normalized_top_left", "label_image_point": [2678.44, 570.4]}, "image_geometry": {"type": "Polygon", "coordinates": [[[2718.57, 558.62], [2716.0, 575.92], [2713.3, 593.19], [2658.22, 585.1], [2663.62, 550.54], [2718.57, 558.62]]]}, "geometry": {"type": "MultiPolygon", "coordinates": [[[[0.354581, 0.257787], [0.354245, 0.265767], [0.353893, 0.27374], [0.346709, 0.270003], [0.347413, 0.254058], [0.354581, 0.257787]]]]}}, {"type": "Feature", "properties": {"id": 976, "plot_numbe": "976", "block_labe": "مدينة بدر", "layer_type": "plot_polygon", "label_only": false, "number_source": "dxf_numbering_layer_printed_in_svg", "coordinate_space": "image_normalized_top_left", "label_image_point": [3112.09, 640.89]}, "image_geometry": {"type": "Polygon", "coordinates": [[[3119.64, 668.17], [3077.12, 651.01], [3082.81, 613.74], [3137.92, 622.07], [3133.25, 652.65], [3119.64, 668.17]]]}, "geometry": {"type": "MultiPolygon", "coordinates": [[[[0.406891, 0.308337], [0.401346, 0.300422], [0.402088, 0.283219], [0.409276, 0.287065], [0.408667, 0.301177], [0.406891, 0.308337]]]]}}, {"type": "Feature", "properties": {"id": 1186, "plot_numbe": "1186", "block_labe": "مدينة بدر", "layer_type": "plot_polygon", "label_only": false, "number_source": "dxf_numbering_layer_printed_in_svg", "coordinate_space": "image_normalized_top_left", "label_image_point": [5230.86, 1099.08]}, "image_geometry": {"type": "Polygon", "coordinates": [[[5223.07, 1085.57], [5244.07, 1090.82], [5234.05, 1130.93], [5213.12, 1125.6], [5223.07, 1085.57]]]}, "geometry": {"type": "MultiPolygon", "coordinates": [[[[0.68124, 0.500956], [0.68398, 0.503379], [0.682672, 0.521887], [0.679943, 0.51943], [0.68124, 0.500956]]]]}}, {"type": "Feature", "properties": {"id": 1286, "plot_numbe": "1286", "block_labe": "مدينة بدر", "layer_type": "plot_polygon", "label_only": false, "number_source": "dxf_numbering_layer_printed_in_svg", "coordinate_space": "image_normalized_top_left", "label_image_point": [6415.84, 1365.86]}, "image_geometry": {"type": "Polygon", "coordinates": [[[6438.34, 1360.22], [6432.97, 1381.46], [6385.62, 1369.55], [6390.93, 1348.3], [6438.34, 1360.22]]]}, "geometry": {"type": "MultiPolygon", "coordinates": [[[[0.839747, 0.627695], [0.839047, 0.637498], [0.83287, 0.632004], [0.833563, 0.622195], [0.839747, 0.627695]]]]}}]}